OBJECT_NAME,OBJECT_ID,EPOCH,MEAN_MOTION,ECCENTRICITY,INCLINATION,RA_OF_ASC_NODE,ARG_OF_PERICENTER,MEAN_ANOMALY,EPHEMERIS_TYPE,CLASSIFICATION_TYPE,NORAD_CAT_ID,ELEMENT_SET_NO,REV_AT_EPOCH,BSTAR,MEAN_MOTION_DOT,MEAN_MOTION_DDOT
BEIDOU-2 G3,2010-024A,2026-07-02T19:00:18.362016,1.00270857,.000793,4.5509,61.4496,357.7433,226.3765,0,U,36590,999,5892,0,-.127E-5,0
BADR-5,2010-025A,2026-07-02T18:29:32.127072,1.00270154,.0004414,0.0534,116.8941,71.9432,39.8148,0,U,36592,999,5337,0,.164E-5,0
COMS 1,2010-032A,2026-07-02T17:39:34.713216,0.99169036,.0011777,4.8426,75.1736,13.9183,108.0967,0,U,36744,999,5124,0,-.89E-6,0
ARABSAT-5A,2010-032B,2026-07-02T18:29:32.127936,1.00274764,.0005769,0.0835,58.6129,58.2443,111.8428,0,U,36745,999,5880,0,.164E-5,0
ECHOSTAR 15,2010-034A,2026-07-02T15:07:44.247936,1.00270012,.0002621,0.0361,284.5969,149.6466,314.5690,0,U,36792,999,5847,0,.1E-6,0
BEIDOU-2 IGSO-1,2010-036A,2026-07-02T21:12:42.914592,1.00267645,.0058835,54.3058,162.8184,225.0696,318.6397,0,U,36828,999,5825,0,-.85E-6,0
NILESAT 201,2010-037A,2026-07-02T17:22:15.684096,1.00270006,.0005503,0.0029,301.9161,187.4736,44.9449,0,U,36830,999,5853,0,0,0
RASCOM-QAF 1R,2010-037B,2026-07-02T17:25:07.907808,1.00271382,.000656,0.0084,102.4353,351.0196,91.4752,0,U,36831,999,5846,0,.29E-6,0
AEHF-1 (USA 214),2010-039A,2026-07-02T17:59:03.185088,1.00269375,.0004102,8.2568,67.8419,30.6873,121.9724,0,U,36868,999,5381,0,.154E-5,0
XM-5,2010-053A,2026-07-02T16:51:25.327872,1.00271300,.0002374,0.0671,268.1705,288.4536,221.7706,0,U,37185,999,5763,0,-.12E-6,0
BSAT-3B,2010-056B,2026-07-02T18:11:43.621728,1.00279940,.0002332,0.0610,233.0675,294.2116,136.2801,0,U,37207,999,5225,0,-.34E-5,0
BEIDOU-2 G4,2010-057A,2026-07-02T14:44:31.473888,1.00271472,.0004849,3.6834,68.8579,189.1174,43.7842,0,U,37210,999,5744,0,-.104E-5,0
SKYTERRA 1,2010-061A,2026-07-02T16:54:54.993024,1.00270534,.0002334,5.1562,50.8263,37.9000,344.4335,0,U,37218,999,5735,0,-.11E-5,0
HYLAS 1,2010-065A,2026-06-30T07:17:51.718848,1.00272596,.00010436,5.6751,72.8623,340.0885,348.6881,0,U,37237,999,701,0,.96E-6,0
INTELSAT 17 (IS-17),2010-065B,2026-07-02T18:44:01.362912,1.00271706,.0002652,0.0318,86.1768,35.8918,145.7291,0,U,37238,999,5340,0,0,0
BEIDOU-2 IGSO-2,2010-068A,2026-07-02T16:12:29.062368,1.00278505,.005659,47.5191,271.6399,213.9221,146.5191,0,U,37256,999,5695,0,-.187E-5,0
EUTELSAT KA-SAT 9A,2010-069A,2026-07-02T14:01:27.053760,1.00271458,.0003862,0.0605,12.7072,123.3444,3.9181,0,U,37258,999,4416,0,.72E-6,0
HISPASAT 30W-5,2010-070A,2026-07-02T17:15:38.817792,1.00271494,.000583,0.0400,107.2023,7.2049,35.2635,0,U,37264,999,5334,0,-.205E-5,0
KOREASAT 6,2010-070B,2026-07-02T16:27:12.650112,1.00272153,.0002675,0.0148,63.4012,49.5354,214.4733,0,U,37265,999,5692,0,-.101E-5,0
BEIDOU-2 IGSO-3,2011-013A,2026-07-02T13:22:52.252608,1.00264616,.0035256,62.4287,40.0069,183.9703,4.4649,0,U,37384,999,5581,0,-.159E-5,0
INTELSAT 28 (IS-28),2011-016A,2026-07-02T17:15:08.866368,1.00272167,.0003931,1.8440,82.4432,22.2819,43.0738,0,U,37392,999,5344,0,-.215E-5,0
YAHSAT 1A,2011-016B,2026-07-02T18:26:34.333152,1.00269059,.00034,0.0185,40.6280,71.1376,138.1848,0,U,37393,999,4256,0,0,0
SBIRS GEO-1 (USA 230),2011-019A,2026-07-02T18:26:25.668960,1.00272295,.0001915,4.5699,53.1143,40.7949,155.2944,0,U,37481,999,5555,0,.108E-5,0
TELSTAR 14R,2011-021A,2026-07-02T16:57:07.125408,1.00272100,.0002211,0.0552,82.5875,354.5413,34.9041,0,U,37602,999,5599,0,-.269E-5,0
GSAT-8,2011-022A,2026-07-02T17:39:59.992128,1.00272277,.0001952,2.1688,81.6457,172.9445,346.2785,0,U,37605,999,5337,0,.94E-6,0
ST-2,2011-022B,2026-07-02T19:10:59.918304,1.00271898,.0001743,0.0173,48.3756,63.8831,184.3507,0,U,37606,999,5543,0,-.201E-5,0
ZHONGXING-10,2011-026A,2026-07-02T19:07:41.524896,1.00271908,.0003811,1.0857,84.0373,11.2872,197.9654,0,U,37677,999,5515,0,-.179E-5,0
SES-3,2011-035A,2026-07-02T16:54:47.504736,1.00272268,.0002384,1.3646,82.9319,10.4088,338.1040,0,U,37748,999,5474,0,-.92E-6,0
KAZSAT-2,2011-035B,2026-07-02T17:21:32.933376,1.00272515,.0001837,0.0156,111.0324,45.6677,110.9527,0,U,37749,999,5355,0,-.187E-5,0
BEIDOU-2 IGSO-4,2011-038A,2026-06-30T22:39:21.613824,1.00282911,.01596501,54.6040,165.5504,231.3791,315.8344,0,U,37763,999,5478,0,.17E-6,0
ASTRA 1N,2011-041A,2026-07-02T14:04:26.768352,1.00272787,.000588,0.0898,44.2622,55.7608,50.8904,0,U,37775,999,4468,0,.13E-5,0
BSAT-3C (JCSAT-110R),2011-041B,2026-07-02T18:11:43.620000,1.00272534,.0000721,0.0285,313.3428,191.5564,158.7716,0,U,37776,999,5062,0,-.34E-5,0
